     3.04           N: GNSS NAV DATA    M: MIXED            RINEX VERSION / TYPE
ssrcrin-15.6.1x                         20250101 144500 UTC PGM / RUN BY / DATE 
    18                                                      LEAP SECONDS        
                                                            END OF HEADER       
S44 2025 01 01 14 58 08 8.409842848778E-07 0.000000000000E+00 3.131120000000E+05
     7.294238400000E+03 4.792500000000E-03-6.250000000000E-08 6.300000000000E+01
     4.154052592000E+04-1.136875000000E-03-2.500000000000E-07 3.276700000000E+04
     3.265648000000E+02 1.383640000000E-01-8.125000000000E-07 6.000000000000E+01
R07 2025 01 01 14 45 00 9.804219007492E-05 9.094947017729E-13 3.131100000000E+05
    -1.529152099609E+04 1.765387535095E+00-4.656612873077E-09 0.000000000000E+00
     4.353684570312E+03-2.082867622375E+00 1.862645149231E-09 5.000000000000E+00
     2.000827685547E+04 1.800971984863E+00 0.000000000000E+00 0.000000000000E+00
S36 2025 01 01 14 59 12 0.000000000000E+00 0.000000000000E+00 3.131650000000E+05
     4.200368800000E+04 0.000000000000E+00 0.000000000000E+00 6.300000000000E+01
     3.674846960000E+03 0.000000000000E+00 0.000000000000E+00 3.276700000000E+04
     0.000000000000E+00 0.000000000000E+00 0.000000000000E+00 2.500000000000E+02
